start=new Date('2022-07-08T00:00:00.000Z').valueOf();
sats=[{"EPHEMERIS_TYPE":"0","SITE":"AFETR","OBJECT_ID":"2020-057AK","GP_ID":"207628446","MEAN_MOTION_DOT":"-0.00000721","APOAPSIS":"548.277","MEAN_ELEMENT_THEORY":"SGP4","REF_FRAME":"TEME","RA_OF_ASC_NODE":"215.8900","PERIAPSIS":"546.214","CLASSIFICATION_TYPE":"U","ELEMENT_SET_NO":"999","REV_AT_EPOCH":"10397","LAUNCH_DATE":"2020-08-18","BSTAR":"-0.00002948600000","ECCENTRICITY":"0.00014900","TLE_LINE1":"1 46150U 20057AK  22188.84778157 -.00000721  00000-0 -29486-4 0  9993","TLE_LINE2":"2 46150  53.0540 215.8900 0001490  60.8448 299.2690 15.06389579103974","FILE":"3509470","MEAN_MOTION_DDOT":"0.0000000000000","TIME_SYSTEM":"UTC","COUNTRY_CODE":"US","NORAD_CAT_ID":"46150","PERIOD":"95.593","ARG_OF_PERICENTER":"60.8448","OBJECT_NAME":"STARLINK-1629","OBJECT_TYPE":"PAYLOAD","MEAN_MOTION":"15.06389579","INCLINATION":"53.0540","CENTER_NAME":"EARTH","EPOCH":"2022-07-07T20:20:48.327648","MEAN_ANOMALY":"299.2690","SEMIMAJOR_AXIS":"6925.380","RCS_SIZE":"LARGE","DECAY_DATE":null},{"MEAN_MOTION_DDOT":"0.0000000000000","FILE":"3509470","TIME_SYSTEM":"UTC","TLE_LINE2":"2 46151  53.0532 196.2900 0001490  73.7084 286.4069 15.06400615104230","ARG_OF_PERICENTER":"73.7084","PERIOD":"95.592","OBJECT_NAME":"STARLINK-1631","COUNTRY_CODE":"US","NORAD_CAT_ID":"46151","INCLINATION":"53.0532","MEAN_MOTION":"15.06400615","OBJECT_TYPE":"PAYLOAD","DECAY_DATE":null,"SEMIMAJOR_AXIS":"6925.347","MEAN_ANOMALY":"286.4069","CENTER_NAME":"EARTH","EPOCH":"2022-07-07T18:10:45.761376","RCS_SIZE":"LARGE","OBJECT_ID":"2020-057AL","APOAPSIS":"548.244","GP_ID":"207627222","MEAN_MOTION_DOT":"0.00000855","EPHEMERIS_TYPE":"0","SITE":"AFETR","REF_FRAME":"TEME","MEAN_ELEMENT_THEORY":"SGP4","PERIAPSIS":"546.180","CLASSIFICATION_TYPE":"U","RA_OF_ASC_NODE":"196.2900","BSTAR":"0.00007627000000","TLE_LINE1":"1 46151U 20057AL  22188.75747409  .00000855  00000-0  76270-4 0  9999","ECCENTRICITY":"0.00014900","REV_AT_EPOCH":"10423","ELEMENT_SET_NO":"999","LAUNCH_DATE":"2020-08-18"},{"BSTAR":"0.00008925900000","ECCENTRICITY":"0.00015170","TLE_LINE1":"1 46152U 20057AM  22188.80725834  .00001048  00000-0  89259-4 0  9990","REV_AT_EPOCH":"10396","ELEMENT_SET_NO":"999","LAUNCH_DATE":"2020-08-18","PERIAPSIS":"546.192","CLASSIFICATION_TYPE":"U","RA_OF_ASC_NODE":"216.0843","REF_FRAME":"TEME","MEAN_ELEMENT_THEORY":"SGP4","OBJECT_ID":"2020-057AM","GP_ID":"207627472","MEAN_MOTION_DOT":"0.00001048","APOAPSIS":"548.293","EPHEMERIS_TYPE":"0","SITE":"AFETR","DECAY_DATE":null,"EPOCH":"2022-07-07T19:22:27.120576","CENTER_NAME":"EARTH","MEAN_ANOMALY":"286.4385","SEMIMAJOR_AXIS":"6925.378","RCS_SIZE":"LARGE","MEAN_MOTION":"15.06390453","INCLINATION":"53.0542","OBJECT_TYPE":"PAYLOAD","PERIOD":"95.593","ARG_OF_PERICENTER":"73.6770","OBJECT_NAME":"STARLINK-1634","COUNTRY_CODE":"US","NORAD_CAT_ID":"46152","FILE":"3509470","MEAN_MOTION_DDOT":"0.0000000000000","TIME_SYSTEM":"UTC","TLE_LINE2":"2 46152  53.0542 216.0843 0001517  73.6770 286.4385 15.06390453103968"},{"INCLINATION":"53.0526","MEAN_MOTION":"15.06397878","OBJECT_TYPE":"PAYLOAD","DECAY_DATE":null,"SEMIMAJOR_AXIS":"6925.355","MEAN_ANOMALY":"298.9652","EPOCH":"2022-07-07T12:15:07.665696","CENTER_NAME":"EARTH","RCS_SIZE":"LARGE","MEAN_MOTION_DDOT":"0.0000000000000","FILE":"3509293","TIME_SYSTEM":"UTC","TLE_LINE2":"2 46153  53.0526 197.4147 0001498  61.1487 298.9652 15.06397878104194","PERIOD":"95.592","ARG_OF_PERICENTER":"61.1487","OBJECT_NAME":"STARLINK-1636","COUNTRY_CODE":"US","NORAD_CAT_ID":"46153","PERIAPSIS":"546.183","CLASSIFICATION_TYPE":"U","RA_OF_ASC_NODE":"197.4147","BSTAR":"0.00006061500000","TLE_LINE1":"1 46153U 20057AN  22188.51050539  .00000621  00000-0  60615-4 0  9993","ECCENTRICITY":"0.00014980","REV_AT_EPOCH":"10419","ELEMENT_SET_NO":"999","LAUNCH_DATE":"2020-08-18","OBJECT_ID":"2020-057AN","APOAPSIS":"548.257","MEAN_MOTION_DOT":"0.00000621","GP_ID":"207598768","EPHEMERIS_TYPE":"0","SITE":"AFETR","REF_FRAME":"TEME","MEAN_ELEMENT_THEORY":"SGP4"},{"CLASSIFICATION_TYPE":"U","PERIAPSIS":"546.065","RA_OF_ASC_NODE":"206.1790","ECCENTRICITY":"0.00017110","TLE_LINE1":"1 46154U 20057AP  22188.78606371  .00001224  00000-0  10112-3 0  9990","BSTAR":"0.00010112000000","LAUNCH_DATE":"2020-08-18","ELEMENT_SET_NO":"999","REV_AT_EPOCH":"10410","APOAPSIS":"548.435","MEAN_MOTION_DOT":"0.00001224","GP_ID":"207627946","OBJECT_ID":"2020-057AP","SITE":"AFETR","EPHEMERIS_TYPE":"0","REF_FRAME":"TEME","MEAN_ELEMENT_THEORY":"SGP4","INCLINATION":"53.0525","MEAN_MOTION":"15.06388153","OBJECT_TYPE":"PAYLOAD","DECAY_DATE":null,"RCS_SIZE":"LARGE","SEMIMAJOR_AXIS":"6925.385","MEAN_ANOMALY":"298.3569","CENTER_NAME":"EARTH","EPOCH":"2022-07-07T18:51:55.904544","TIME_SYSTEM":"UTC","MEAN_MOTION_DDOT":"0.0000000000000","FILE":"3509470","TLE_LINE2":"2 46154  53.0525 206.1790 0001711  61.7593 298.3569 15.06388153104106","OBJECT_NAME":"STARLINK-1642","PERIOD":"95.593","ARG_OF_PERICENTER":"61.7593","NORAD_CAT_ID":"46154","COUNTRY_CODE":"US"},{"RA_OF_ASC_NODE":"176.6554","CLASSIFICATION_TYPE":"U","PERIAPSIS":"546.036","LAUNCH_DATE":"2020-08-18","ELEMENT_SET_NO":"999","REV_AT_EPOCH":"10574","ECCENTRICITY":"0.00017040","TLE_LINE1":"1 46155U 20057AQ  22188.67823012 -.00000790  00000-0 -34168-4 0  9999","BSTAR":"-0.00003416800000","SITE":"AFETR","EPHEMERIS_TYPE":"0","APOAPSIS":"548.396","GP_ID":"207626723","MEAN_MOTION_DOT":"-0.00000790","OBJECT_ID":"2020-057AQ","MEAN_ELEMENT_THEORY":"SGP4","REF_FRAME":"TEME","OBJECT_TYPE":"PAYLOAD","INCLINATION":"53.0547","MEAN_MOTION":"15.06399198","RCS_SIZE":"LARGE","SEMIMAJOR_AXIS":"6925.351","EPOCH":"2022-07-07T16:16:39.082368","MEAN_ANOMALY":"298.8151","CENTER_NAME":"EARTH","DECAY_DATE":null,"TLE_LINE2":"2 46155  53.0547 176.6554 0001704  61.3009 298.8151 15.06399198105744","TIME_SYSTEM":"UTC","MEAN_MOTION_DDOT":"0.0000000000000","FILE":"3509470","NORAD_CAT_ID":"46155","COUNTRY_CODE":"US","OBJECT_NAME":"STARLINK-1667","PERIOD":"95.592","ARG_OF_PERICENTER":"61.3009"},{"MEAN_ELEMENT_THEORY":"SGP4","REF_FRAME":"TEME","SITE":"AFETR","EPHEMERIS_TYPE":"0","APOAPSIS":"548.453","GP_ID":"207626973","MEAN_MOTION_DOT":"0.00000627","OBJECT_ID":"2020-057AR","LAUNCH_DATE":"2020-08-18","REV_AT_EPOCH":"10549","ELEMENT_SET_NO":"999","TLE_LINE1":"1 46156U 20057AR  22188.80170817  .00000627  00000-0  61011-4 0  9997","ECCENTRICITY":"0.00017690","BSTAR":"0.00006101100000","RA_OF_ASC_NODE":"196.0963","CLASSIFICATION_TYPE":"U","PERIAPSIS":"546.003","NORAD_CAT_ID":"46156","COUNTRY_CODE":"US","OBJECT_NAME":"STARLINK-1545","ARG_OF_PERICENTER":"62.5335","PERIOD":"95.592","TLE_LINE2":"2 46156  53.0548 196.0963 0001769  62.5335 297.5833 15.06395369105493","TIME_SYSTEM":"UTC","MEAN_MOTION_DDOT":"0.0000000000000","FILE":"3509470","RCS_SIZE":"LARGE","SEMIMAJOR_AXIS":"6925.363","EPOCH":"2022-07-07T19:14:27.585888","CENTER_NAME":"EARTH","MEAN_ANOMALY":"297.5833","DECAY_DATE":null,"OBJECT_TYPE":"PAYLOAD","INCLINATION":"53.0548","MEAN_MOTION":"15.06395369"},{"DECAY_DATE":null,"EPOCH":"2022-07-07T20:31:24.143520","MEAN_ANOMALY":"306.8208","CENTER_NAME":"EARTH","SEMIMAJOR_AXIS":"6925.362","RCS_SIZE":"LARGE","MEAN_MOTION":"15.06395522","INCLINATION":"53.0548","OBJECT_TYPE":"PAYLOAD","PERIOD":"95.592","ARG_OF_PERICENTER":"53.2979","OBJECT_NAME":"STARLINK-1587","COUNTRY_CODE":"US","NORAD_CAT_ID":"46157","FILE":"3509470","MEAN_MOTION_DDOT":"0.0000000000000","TIME_SYSTEM":"UTC","TLE_LINE2":"2 46157  53.0548 175.8679 0002151  53.2979 306.8208 15.06395522104535","BSTAR":"0.00008749400000","TLE_LINE1":"1 46157U 20057AS  22188.85514055  .00001022  00000-0  87494-4 0  9992","ECCENTRICITY":"0.00021510","ELEMENT_SET_NO":"999","REV_AT_EPOCH":"10453","LAUNCH_DATE":"2020-08-18","PERIAPSIS":"545.738","CLASSIFICATION_TYPE":"U","RA_OF_ASC_NODE":"175.8679","REF_FRAME":"TEME","MEAN_ELEMENT_THEORY":"SGP4","OBJECT_ID":"2020-057AS","MEAN_MOTION_DOT":"0.00001022","GP_ID":"207627719","APOAPSIS":"548.717","EPHEMERIS_TYPE":"0","SITE":"AFETR"},{"LAUNCH_DATE":"2020-08-18","REV_AT_EPOCH":"10572","ELEMENT_SET_NO":"999","TLE_LINE1":"1 46158U 20057AT  22188.38703316  .00001840  00000-0  14238-3 0  9994","ECCENTRICITY":"0.00017440","BSTAR":"0.00014238000000","RA_OF_ASC_NODE":"177.9711","CLASSIFICATION_TYPE":"U","PERIAPSIS":"546.000","MEAN_ELEMENT_THEORY":"SGP4","REF_FRAME":"TEME","SITE":"AFETR","EPHEMERIS_TYPE":"0","APOAPSIS":"548.416","GP_ID":"207599012","MEAN_MOTION_DOT":"0.00001840","OBJECT_ID":"2020-057AT","RCS_SIZE":"LARGE","SEMIMAJOR_AXIS":"6925.343","MEAN_ANOMALY":"284.6499","EPOCH":"2022-07-07T09:17:19.665024","CENTER_NAME":"EARTH","DECAY_DATE":null,"OBJECT_TYPE":"PAYLOAD","INCLINATION":"53.0543","MEAN_MOTION":"15.06401790","NORAD_CAT_ID":"46158","COUNTRY_CODE":"US","OBJECT_NAME":"STARLINK-1589","PERIOD":"95.592","ARG_OF_PERICENTER":"75.4683","TLE_LINE2":"2 46158  53.0543 177.9711 0001744  75.4683 284.6499 15.06401790105728","TIME_SYSTEM":"UTC","MEAN_MOTION_DDOT":"0.0000000000000","FILE":"3509293"},{"RCS_SIZE":"LARGE","MEAN_ANOMALY":"302.1135","EPOCH":"2022-07-07T13:26:47.703840","CENTER_NAME":"EARTH","SEMIMAJOR_AXIS":"6925.351","DECAY_DATE":null,"OBJECT_TYPE":"PAYLOAD","MEAN_MOTION":"15.06399173","INCLINATION":"53.0540","NORAD_CAT_ID":"46159","COUNTRY_CODE":"US","OBJECT_NAME":"STARLINK-1595","PERIOD":"95.592","ARG_OF_PERICENTER":"58.0007","TLE_LINE2":"2 46159  53.0540 217.1899 0001576  58.0007 302.1135 15.06399173105184","TIME_SYSTEM":"UTC","FILE":"3509470","MEAN_MOTION_DDOT":"0.0000000000000","LAUNCH_DATE":"2020-08-18","REV_AT_EPOCH":"10518","ELEMENT_SET_NO":"999","ECCENTRICITY":"0.00015760","TLE_LINE1":"1 46159U 20057AU  22188.56027435  .00001455  00000-0  11655-3 0  9998","BSTAR":"0.00011655000000","RA_OF_ASC_NODE":"217.1899","CLASSIFICATION_TYPE":"U","PERIAPSIS":"546.125","MEAN_ELEMENT_THEORY":"SGP4","REF_FRAME":"TEME","SITE":"AFETR","EPHEMERIS_TYPE":"0","GP_ID":"207627223","MEAN_MOTION_DOT":"0.00001455","APOAPSIS":"548.308","OBJECT_ID":"2020-057AU"}];
